HULIANWANG DIGUI-145    
1 67443U 26007J   26059.59136216 -.00000040  00000+0  14618-3 0  9991
2 67443  50.0082 115.8806 0002006 337.9638  22.1156 13.48483859  6339
